IRIDIUM 155             
1 43573U 18061E   22247.62466497  .00000140  00000+0  43042-4 0  9990
2 43573  86.3917 274.0266 0002174  99.4500 260.6941 14.34216924215334
IRIDIUM 154             
1 43574U 18061F   22248.16378538  .00000151  00000+0  46733-4 0  9991
2 43574  86.3920 273.8681 0002160  84.7788 275.3655 14.34216486215469
IRIDIUM 163             
1 43575U 18061G   22248.49359243  .00000099  00000+0  28330-4 0  9994
2 43575  86.3917 273.6878 0002607  88.5643 271.5851 14.34216782215487
IRIDIUM 156             
1 43576U 18061H   22247.63098985 -.00000026  00000+0 -16417-4 0  9998
2 43576  86.3921 274.0541 0002410  96.8356 263.3114 14.34214519215353
IRIDIUM 164             
1 43577U 18061J   22247.61197919  .00000140  00000+0  42807-4 0  9991
2 43577  86.3919 274.0815 0002314  84.8434 275.3025 14.34218128215390
IRIDIUM 159             
1 43578U 18061K   22247.78955636  .00000022  00000+0  96841-6 0  9996
2 43578  86.3918 273.9731 0002227  86.4212 273.7238 14.34215054215382
IRIDIUM 180             
1 43922U 19002A   22248.13790905  .00000185  00000+0  58987-4 0  9998
2 43922  86.4004 210.7093 0002411  72.0304 288.1154 14.34217291191082
IRIDIUM 176             
1 43923U 19002B   22248.19107306  .00000606  00000+0  92195-4 0  9999
2 43923  86.6138 210.7235 0002439  86.3065 273.8431 14.72249946196069
IRIDIUM 168             
1 43924U 19002C   22247.64317349  .00000137  00000+0  41956-4 0  9997
2 43924  86.4006 210.9540 0002191  79.6096 280.5346 14.34214227190951
IRIDIUM 173             
1 43925U 19002D   22248.18864801  .00000198  00000+0  63683-4 0  9996
2 43925  86.4003 210.6717 0002281  79.8445 280.3008 14.34220625191023
IRIDIUM 169             
1 43926U 19002E   22248.43116394  .00000132  00000+0  36469-4 0  9992
2 43926  86.4196 242.1470 0003781 179.0330 181.0876 14.38605866191719
IRIDIUM 172             
1 43927U 19002F   22247.62415816  .00000193  00000+0  61929-4 0  9990
2 43927  86.4002 210.9111 0002292  78.2650 281.8803 14.34217148190943
IRIDIUM 175             
1 43928U 19002G   22247.43726526  .00000442  00000+0  66162-4 0  9994
2 43928  86.6141 210.8710 0002342  84.9035 275.2450 14.72252556195945
IRIDIUM 171             
1 43929U 19002H   22247.46558896  .00000190  00000+0  60900-4 0  9995
2 43929  86.4011 211.1300 0002182  79.1200 281.0241 14.34216039190910
IRIDIUM 170             
1 43930U 19002J   22248.40116777  .00000623  00000+0  94825-4 0  9994
2 43930  86.6139 210.6412 0002381  89.7351 270.4138 14.72251589196103
IRIDIUM 167             
1 43931U 19002K   22248.15693856  .00000186  00000+0  59255-4 0  9997
2 43931  86.4004 210.6989 0002290  75.4114 284.7336 14.34217057191013
